     2.100          NAVIGATION                              RINEX VERSION / TYPE
fic2rin                                 02/18/2011 00:13:49 PGM / RUN BY / DATE
                                                            END OF HEADER
18 11  2 17 22  0  0.0  .122068915516D-03  .204636307899D-11  .000000000000D+00
     .750000000000D+02 -.415937500000D+02  .577309761555D-08 -.116326436613D+01
    -.200606882572D-05  .119102133904D-01  .412389636040D-05  .515375266457D+04
     .424800000000D+06  .275671482086D-06  .195137855836D+01  .182539224625D-06
     .933681773788D+00  .282906250000D+03 -.227423616960D+01 -.878643741896D-08
    -.350371737246D-09  .100000000000D+01  .162300000000D+04  .000000000000D+00
     .340000000000D+01  .000000000000D+00 -.107102096081D-07  .750000000000D+02
     .417606000000D+06  .400000000000D+01
20 11  2 17 22  0  0.0  .486634671688D-04  .000000000000D+00  .000000000000D+00
     .550000000000D+02 -.395625000000D+02  .580559896936D-08 -.788712032725D+00
    -.198557972908D-05  .470159528777D-02  .427477061749D-05  .515371602631D+04
     .424800000000D+06 -.745058059692D-07  .189741128952D+01  .502914190292D-07
     .933747833317D+00  .286312500000D+03  .127067214652D+01 -.885751180806D-08
    -.316798910232D-09  .100000000000D+01  .162300000000D+04  .000000000000D+00
     .240000000000D+01  .000000000000D+00 -.791624188423D-08  .550000000000D+02
     .417606000000D+06  .400000000000D+01
21 11  2 17 22  0  0.0 -.124661717564D-03 -.261479726760D-11  .000000000000D+00
     .900000000000D+01  .594687500000D+02  .550665794584D-08  .132075385081D+00
     .331737101078D-05  .172545005335D-01  .819005072117D-05  .515378387833D+04
     .424800000000D+06  .149011611938D-07  .895936371963D+00  .247731804848D-06
     .931935703526D+00  .207750000000D+03 -.240418043853D+01 -.879750930872D-08
     .676099590833D-09  .100000000000D+01  .162300000000D+04  .000000000000D+00
     .240000000000D+01  .000000000000D+00 -.116415321827D-07  .900000000000D+01
     .417606000000D+06  .400000000000D+01
22 11  2 17 22  0  0.0  .153186265379D-03 -.568434188608D-12  .000000000000D+00
     .210000000000D+02 -.454687500000D+02  .574845373189D-08 -.199172665091D+01
    -.234879553318D-05  .537413847633D-02  .407546758652D-05  .515370311356D+04
     .424800000000D+06  .115483999252D-06  .195572014227D+01  .558793544769D-08
     .931377856289D+00  .283312500000D+03 -.195367726348D+01 -.870107672049D-08
    -.310370071016D-09  .100000000000D+01  .162300000000D+04  .000000000000D+00
     .240000000000D+01  .000000000000D+00 -.172294676304D-07  .210000000000D+02
     .417606000000D+06  .400000000000D+01
23 11  2 17 22  0  0.0  .325342640281D-03 -.238742359215D-11  .000000000000D+00
     .740000000000D+02  .154062500000D+02  .417124517768D-08  .259764868615D+01
     .856816768646D-06  .697941856924D-02  .135954469442D-04  .515359559441D+04
     .424800000000D+06 -.122934579849D-06  .299139553611D+01  .633299350739D-07
     .965742553911D+00  .122781250000D+03  .312950222083D+01 -.770710674622D-08
    -.344300055765D-09  .100000000000D+01  .162300000000D+04  .000000000000D+00
     .240000000000D+01  .000000000000D+00 -.200234353542D-07  .740000000000D+02
     .417606000000D+06  .400000000000D+01
24 11  2 17 22  0  0.0  .366307795048D-03  .329691829393D-11  .000000000000D+00
     .680000000000D+02  .706875000000D+02  .504342436458D-08  .192343999173D+01
     .358559191227D-05  .586463231593D-02  .770017504692D-05  .515372587585D+04
     .424800000000D+06  .502914190292D-07  .939086891824D+00  .106170773506D-06
     .948499429631D+00  .222906250000D+03 -.310694227147D+00 -.835391940285D-08
     .601810782120D-09  .100000000000D+01  .162300000000D+04  .000000000000D+00
     .240000000000D+01  .000000000000D+00 -.139698386192D-08  .680000000000D+02
     .417606000000D+06  .400000000000D+01
25 11  2 17 22  0  0.0 -.685672275722D-04 -.136424205266D-11  .000000000000D+00
     .710000000000D+02 -.701250000000D+02  .495342061557D-08 -.104484208534D+01
    -.378489494324D-05  .437171547674D-03  .129081308842D-05  .515369515800D+04
     .424800000000D+06  .242143869400D-07 -.122222298711D+01  .875443220139D-07
     .962458099477D+00  .355062500000D+03  .109283616750D+01 -.868821904205D-08
    -.376801409577D-09  .100000000000D+01  .162300000000D+04  .100000000000D+01
     .240000000000D+01  .000000000000D+00  .465661287308D-08  .710000000000D+02
     .417606000000D+06  .400000000000D+01
26 11  2 17 22  0  0.0 -.123912468553D-03 -.966338120634D-11  .000000000000D+00
     .680000000000D+02  .272812500000D+02  .354621914283D-08  .229476770697D+01
     .124424695969D-05  .202463788446D-01  .155568122864D-04  .515364984703D+04
     .424800000000D+06  .912696123123D-07  .305419498561D+01 -.389292836189D-06
     .988639363564D+00  .879375000000D+02  .112267102268D+01 -.719601402858D-08
    -.333228166005D-09  .100000000000D+01  .162300000000D+04  .000000000000D+00
     .240000000000D+01  .000000000000D+00 -.651925802231D-08  .680000000000D+02
     .417606000000D+06  .400000000000D+01
27 11  2 17 22  0  0.0  .237720552832D-03  .363797880709D-11  .000000000000D+00
     .800000000000D+02  .160875000000D+03  .414838708269D-08 -.295718954316D+01
     .825524330139D-05  .218297105748D-01  .706873834133D-05  .515371821022D+04
     .424800000000D+06  .281259417534D-06 -.230348846886D+01  .264495611191D-06
     .980473685465D+00  .247687500000D+03 -.129241923568D+01 -.777996692399D-08
     .567166481903D-09  .100000000000D+01  .162300000000D+04  .000000000000D+00
     .240000000000D+01  .000000000000D+00 -.419095158577D-08  .800000000000D+02
     .417606000000D+06  .400000000000D+01
28 11  2 17 22  0  0.0  .205826945603D-04  .204636307899D-11  .000000000000D+00
     .500000000000D+01 -.883437500000D+02  .451054502516D-08 -.188494644043D+01
    -.441819429398D-05  .169237456284D-01  .199116766453D-05  .515368949127D+04
     .424800000000D+06  .260770320892D-06 -.116842330285D+01  .298023223877D-07
     .973068233226D+00  .343437500000D+03 -.190545355438D+01 -.823748598150D-08
    -.333942481473D-09  .100000000000D+01  .162300000000D+04  .000000000000D+00
     .240000000000D+01  .000000000000D+00 -.107102096081D-07  .500000000000D+01
     .417606000000D+06  .400000000000D+01
29 11  2 17 22  0  0.0  .186205375940D-03  .295585778076D-11  .000000000000D+00
     .740000000000D+02 -.100375000000D+03  .408945605655D-08  .288316633454D+00
    -.511668622494D-05  .262414151803D-02  .138152390718D-04  .515358623505D+04
     .424800000000D+06 -.167638063431D-07 -.124619274916D+00 -.912696123123D-07
     .961859954699D+00  .115875000000D+03 -.125855907510D+01 -.785747015231D-08
    -.800033324599D-10  .100000000000D+01  .162300000000D+04  .000000000000D+00
     .240000000000D+01  .000000000000D+00 -.884756445885D-08  .740000000000D+02
     .417606000000D+06  .400000000000D+01
30 11  2 17 22  0  0.0  .322710257024D-03  .306954461848D-11  .000000000000D+00
     .460000000000D+02 -.657812500000D+02  .486198823561D-08 -.277799745664D+01
    -.336952507496D-05  .125739981886D-01  .959262251854D-06  .515364257622D+04
     .424800000000D+06  .182539224625D-06 -.125111572304D+01  .316649675369D-07
     .959071692820D+00  .358906250000D+03  .151591981048D+01 -.841177895579D-08
    -.226795161215D-09  .100000000000D+01  .162300000000D+04  .000000000000D+00
     .240000000000D+01  .000000000000D+00 -.791624188423D-08  .460000000000D+02
     .417606000000D+06  .400000000000D+01
31 11  2 17 22  0  0.0  .428613275290D-04  .466116034659D-11  .000000000000D+00
     .640000000000D+02  .122156250000D+03  .424589114412D-08  .898534280405D+00
     .619888305664D-05  .789459992666D-02  .664405524731D-05  .515359882355D+04
     .424800000000D+06 -.130385160446D-07 -.224782051824D+01 -.175088644028D-06
     .979043912720D+00  .259843750000D+03 -.995751892789D+00 -.815962559544D-08
     .402873924173D-09  .100000000000D+01  .162300000000D+04  .000000000000D+00
     .340000000000D+01  .000000000000D+00 -.130385160446D-07  .640000000000D+02
     .417606000000D+06  .400000000000D+01
32 11  2 17 22  0  0.0 -.198422931135D-03 -.773070496507D-11  .000000000000D+00
     .660000000000D+02 -.486562500000D+02  .514164274149D-08  .164214750091D+01
    -.259652733803D-05  .122609158279D-01  .502541661263D-05  .515373227692D+04
     .424800000000D+06  .203028321266D-06  .202024702445D+01  .409781932831D-07
     .955601970052D+00  .280093750000D+03 -.822989503856D+00 -.833963309348D-08
    -.517878714584D-09  .100000000000D+01  .162300000000D+04  .000000000000D+00
     .240000000000D+01  .000000000000D+00 -.325962901115D-08  .660000000000D+02
     .417606000000D+06  .400000000000D+01
18 11  2 17 21 59 44.0  .122069381177D-03  .204636307899D-11  .000000000000D+00
     .100000000000D+01 -.415937500000D+02  .577309761555D-08 -.116559802914D+01
    -.200606882572D-05  .119102108292D-01  .412389636040D-05  .515375266266D+04
     .424784000000D+06  .275671482086D-06  .195137870758D+01  .182539224625D-06
     .933681795732D+00  .282906250000D+03 -.227423619008D+01 -.878643741896D-08
    -.350371737246D-09  .100000000000D+01  .162300000000D+04  .000000000000D+00
     .240000000000D+01  .000000000000D+00 -.107102096081D-07  .100000000000D+01
     .420786000000D+06  .400000000000D+01
14 11  2 17 21 59 44.0  .132101122290D-03  .272848410532D-11  .000000000000D+00
     .450000000000D+02  .146250000000D+02  .371551190884D-08 -.293816729106D+01
     .886619091034D-06  .561348500196D-02  .139307230711D-04  .515363651657D+04
     .424784000000D+06  .353902578354D-07  .303506250994D+01 -.614672899246D-07
     .984066322609D+00  .121031250000D+03 -.208249770119D+01 -.744638160025D-08
    -.328227957726D-09  .100000000000D+01  .162300000000D+04  .000000000000D+00
     .240000000000D+01  .000000000000D+00 -.884756445885D-08  .450000000000D+02
     .421206000000D+06  .400000000000D+01
